OBJECT_NAME,OBJECT_ID,EPOCH,MEAN_MOTION,ECCENTRICITY,INCLINATION,RA_OF_ASC_NODE,ARG_OF_PERICENTER,MEAN_ANOMALY,EPHEMERIS_TYPE,CLASSIFICATION_TYPE,NORAD_CAT_ID,ELEMENT_SET_NO,REV_AT_EPOCH,BSTAR,MEAN_MOTION_DOT,MEAN_MOTION_DDOT
DMSP 5D-3 F16 (USA 172),2003-048A,2026-06-09T07:29:09.253824,14.14482497,.00073699,98.9892,184.0880,160.7931,255.5721,0,U,28054,999,16837,.25234935E-4,.3E-7,0
METEOSAT-9 (MSG-2),2005-049B,2026-06-08T18:44:00.008160,1.00268863,.00017001,9.3415,54.2486,350.9221,178.6781,0,U,28912,999,691,0,.137E-5,0
DMSP 5D-3 F17 (USA 191),2006-050A,2026-06-09T07:41:51.726912,14.14992029,.00113166,98.7378,167.0518,79.5636,280.6813,0,U,29522,999,1131,.3943262E-4,.33E-6,0
FENGYUN 3A,2008-026A,2026-06-09T07:03:32.958144,14.19569540,.00092601,98.6882,101.2751,144.5048,215.6746,0,U,32958,999,93428,.52747716E-4,.68E-6,0
GOES 14,2009-033A,2026-06-08T20:55:27.054624,1.00113863,.00019376,1.6675,83.1445,5.1308,269.4392,0,U,35491,999,650,0,-.241E-5,0
DMSP 5D-3 F18 (USA 210),2009-057A,2026-06-09T06:59:53.409696,14.14892267,.00098661,98.9034,141.0780,274.7695,85.2351,0,U,35951,999,85847,.14677974E-3,.239E-5,0
EWS-G2 (GOES 15),2010-008A,2026-06-09T04:52:21.398880,1.00275829,.00054383,1.2547,82.9954,38.4950,272.7942,0,U,36411,999,5955,0,.35E-6,0
COMS 1,2010-032A,2026-06-03T23:47:39.107040,1.00270643,.0001016,4.7750,75.5286,4.5847,297.3769,0,U,36744,999,5095,0,-.334E-5,0
FENGYUN 3B,2010-059A,2026-06-09T07:30:57.155328,14.14840085,.00214606,98.9623,206.2942,206.6933,217.4674,0,U,37214,999,80631,.28527746E-4,.1E-6,0
SUOMI NPP,2011-061A,2026-06-09T05:37:53.062752,14.19515724,.0001974,98.7953,101.1651,24.4788,335.6482,0,U,37849,999,75731,.50124148E-4,.61E-6,0
METEOSAT-10 (MSG-3),2012-035B,2026-06-09T01:21:36.206784,1.00275825,.00015788,4.6514,61.0532,334.1660,242.8443,0,U,38552,999,5077,0,.11E-6,0
METOP-B,2012-049A,2026-06-09T05:38:58.556544,14.21430497,.00026948,98.6507,211.8930,38.2122,321.9246,0,U,38771,999,71213,.55065262E-4,.77E-6,0
INSAT-3D,2013-038B,2026-06-09T07:06:32.974272,1.00273385,.00007534,1.9046,82.6416,317.4639,93.7203,0,U,39216,999,4700,0,-.322E-5,0
FENGYUN 3C,2013-052A,2026-06-09T06:28:24.253824,14.15753216,.00156151,98.4975,134.5083,49.2266,311.0261,0,U,39260,999,65744,.623705E-4,.81E-6,0
METEOR-M 2,2014-037A,2026-06-09T06:17:09.295296,14.21460532,.00069931,98.5114,136.2813,63.5189,296.6705,0,U,40069,999,61819,.21597469E-3,.43E-5,0
HIMAWARI-8,2014-060A,2026-06-08T20:10:00.000192,1.00270961,.00008182,0.0136,319.3355,138.5674,242.4936,0,U,40267,999,4267,0,-.259E-5,0
FENGYUN 2G,2014-090A,2026-06-08T20:52:19.341984,1.00276806,.00034159,5.6171,72.9157,153.8778,83.1535,0,U,40367,999,4191,0,-.287E-5,0
METEOSAT-11 (MSG-4),2015-034A,2026-06-09T06:32:15.023904,1.00277861,.00017073,3.1824,71.1549,6.4566,287.5516,0,U,40732,999,713,0,.8E-6,0
ELEKTRO-L 2,2015-074A,2026-06-09T06:22:25.775904,1.00271831,.00010068,6.6730,70.6207,284.5070,343.6389,0,U,41105,999,3842,0,-.102E-5,0
SENTINEL-3A,2016-011A,2026-06-09T07:00:19.251072,14.26737783,.00013443,98.6249,227.7886,104.5178,255.6152,0,U,41335,999,53693,.49997498E-4,.77E-6,0
INSAT-3DR,2016-054A,2026-06-09T03:25:02.582400,1.00270533,.00104417,0.0844,87.5464,186.6911,108.5347,0,U,41752,999,3573,0,-.6E-6,0
HIMAWARI-9,2016-064A,2026-06-09T07:09:47.661984,1.00272343,.00008537,0.0359,162.1349,318.8556,24.9115,0,U,41836,999,3513,0,-.258E-5,0
GOES 16,2016-071A,2026-06-09T05:35:56.635296,1.00270559,.00004046,0.3193,85.6068,312.6460,198.6748,0,U,41866,999,3502,0,-.74E-6,0
FENGYUN 4A,2016-077A,2026-06-09T07:04:55.629120,1.00273462,.00083266,2.3018,80.3704,151.5209,255.7921,0,U,41882,999,3485,0,-.34E-5,0
CYGFM05,2016-078A,2026-06-08T20:11:45.684672,15.56298876,.00069022,34.9576,315.8393,64.4552,295.6886,0,U,41884,999,52745,.33038109E-3,.24058E-3,0
CYGFM04,2016-078B,2026-06-09T00:42:43.691040,15.61053774,.00059364,34.9328,282.6908,114.0364,246.0983,0,U,41885,999,52772,.29793754E-3,.2599E-3,0
CYGFM02,2016-078C,2026-06-08T17:26:21.954336,15.63951377,.00069175,34.9407,279.4912,112.4011,247.7449,0,U,41886,999,52784,.35915488E-3,.35163E-3,0
CYGFM01,2016-078D,2026-06-08T20:00:42.431616,15.56961058,.00067782,34.9406,317.0150,57.2874,302.8504,0,U,41887,999,52740,.32211491E-3,.24044E-3,0
CYGFM08,2016-078E,2026-06-09T01:31:30.115200,15.59587692,.00077866,34.9435,295.2833,95.2901,264.8713,0,U,41888,999,52770,.30283188E-3,.24978E-3,0
CYGFM07,2016-078G,2026-06-08T18:24:43.907904,15.59678638,.0006371,34.9448,285.6049,110.5312,249.6098,0,U,41890,999,52768,.35491437E-3,.29388E-3,0
CYGFM03,2016-078H,2026-06-09T01:23:45.786048,15.59683603,.000586,34.9404,285.6073,100.3931,259.7455,0,U,41891,999,52770,.29947907E-3,.24776E-3,0
