DMSP 5D-3 F16 (USA 172) 
1 28054U 03048A   26160.31191266  .00000003  00000+0  25235-4 0  9991
2 28054  98.9892 184.0880 0007369 160.7931 255.5721 14.14482497168373
METEOSAT-9 (MSG-2)      
1 28912U 05049B   26159.78055565  .00000137  00000+0  00000+0 0  9993
2 28912   9.3415  54.2486 0001700 350.9221 178.6781  1.00268863  6913
DMSP 5D-3 F17 (USA 191) 
1 29522U 06050A   26160.32073758  .00000033  00000+0  39433-4 0  9992
2 29522  98.7378 167.0518 0011316  79.5636 280.6813 14.14992029 11315
FENGYUN 3A              
1 32958U 08026A   26160.29413146  .00000068  00000+0  52748-4 0  9991
2 32958  98.6882 101.2751 0009260 144.5048 215.6746 14.19569540934281
GOES 14                 
1 35491U 09033A   26159.87184091 -.00000241  00000+0  00000+0 0  9994
2 35491   1.6675  83.1445 0001937   5.1308 269.4392  1.00113863  6500
DMSP 5D-3 F18 (USA 210) 
1 35951U 09057A   26160.29159039  .00000239  00000+0  14678-3 0  9999
2 35951  98.9034 141.0780 0009866 274.7695  85.2351 14.14892267858478
EWS-G2 (GOES 15)        
1 36411U 10008A   26160.20302545  .00000035  00000+0  00000+0 0  9996
2 36411   1.2547  82.9954 0005438  38.4950 272.7942  1.00275829 59553
COMS 1                  
1 36744U 10032A   26154.99142485 -.00000334  00000+0  00000+0 0  9999
2 36744   4.7750  75.5286 0001016   4.5847 297.3769  1.00270643 50953
FENGYUN 3B              
1 37214U 10059A   26160.31316152  .00000010  00000+0  28528-4 0  9998
2 37214  98.9623 206.2942 0021460 206.6933 217.4674 14.14840085806317
SUOMI NPP               
1 37849U 11061A   26160.23464193  .00000061  00000+0  50124-4 0  9999
2 37849  98.7953 101.1651 0001974  24.4788 335.6482 14.19515724757316
METEOSAT-10 (MSG-3)     
1 38552U 12035B   26160.05666906  .00000011  00000+0  00000+0 0  9997
2 38552   4.6514  61.0532 0001578 334.1660 242.8443  1.00275825 50772
METOP-B                 
1 38771U 12049A   26160.23539996  .00000077  00000+0  55065-4 0  9991
2 38771  98.6507 211.8930 0002694  38.2122 321.9246 14.21430497712132
INSAT-3D                
1 39216U 13038B   26160.29621498 -.00000322  00000+0  00000+0 0  9998
2 39216   1.9046  82.6416 0000753 317.4639  93.7203  1.00273385 47002
FENGYUN 3C              
1 39260U 13052A   26160.26972516  .00000081  00000+0  62371-4 0  9995
2 39260  98.4975 134.5083 0015615  49.2266 311.0261 14.15753216657440
METEOR-M 2              
1 40069U 14037A   26160.26191314  .00000430  00000+0  21597-3 0  9999
2 40069  98.5114 136.2813 0006993  63.5189 296.6705 14.21460532618190
HIMAWARI-8              
1 40267U 14060A   26159.84027778 -.00000259  00000+0  00000+0 0  9991
2 40267   0.0136 319.3355 0000818 138.5674 242.4936  1.00270961 42676
FENGYUN 2G              
1 40367U 14090A   26159.86966831 -.00000287  00000+0  00000+0 0  9990
2 40367   5.6171  72.9157 0003415 153.8778  83.1535  1.00276806 41915
METEOSAT-11 (MSG-4)     
1 40732U 15034A   26160.27239611  .00000080  00000+0  00000+0 0  9991
2 40732   3.1824  71.1549 0001707   6.4566 287.5516  1.00277861  7132
ELEKTRO-L 2             
1 41105U 15074A   26160.26557611 -.00000102  00000+0  00000+0 0  9998
2 41105   6.6730  70.6207 0001006 284.5070 343.6389  1.00271831 38426
SENTINEL-3A             
1 41335U 16011A   26160.29188948  .00000077  00000+0  49997-4 0  9994
2 41335  98.6249 227.7886 0001344 104.5178 255.6152 14.26737783536934
INSAT-3DR               
1 41752U 16054A   26160.14239100 -.00000060  00000+0  00000+0 0  9995
2 41752   0.0844  87.5464 0010441 186.6911 108.5347  1.00270533 35730
HIMAWARI-9              
1 41836U 16064A   26160.29846831 -.00000258  00000+0  00000+0 0  9999
2 41836   0.0359 162.1349 0000853 318.8556  24.9115  1.00272343 35135
GOES 16                 
1 41866U 16071A   26160.23329439 -.00000074  00000+0  00000+0 0  9990
2 41866   0.3193  85.6068 0000404 312.6460 198.6748  1.00270559 35028
FENGYUN 4A              
1 41882U 16077A   26160.29508830 -.00000340  00000+0  00000+0 0  9990
2 41882   2.3018  80.3704 0008326 151.5209 255.7921  1.00273462 34859
CYGFM05                 
1 41884U 16078A   26159.84150098  .00024058  00000+0  33038-3 0  9993
2 41884  34.9576 315.8393 0006902  64.4552 295.6886 15.56298876527450
CYGFM04                 
1 41885U 16078B   26160.02967235  .00025990  00000+0  29794-3 0  9995
2 41885  34.9328 282.6908 0005936 114.0364 246.0983 15.61053774527728
CYGFM02                 
1 41886U 16078C   26159.72664299  .00035163  00000+0  35915-3 0  9990
2 41886  34.9407 279.4912 0006917 112.4011 247.7449 15.63951377527843
CYGFM01                 
1 41887U 16078D   26159.83382444  .00024044  00000+0  32211-3 0  9994
2 41887  34.9406 317.0150 0006778  57.2874 302.8504 15.56961058527400
CYGFM08                 
1 41888U 16078E   26160.06354300  .00024978  00000+0  30283-3 0  9995
2 41888  34.9435 295.2833 0007786  95.2901 264.8713 15.59587692527704
CYGFM07                 
1 41890U 16078G   26159.76717486  .00029388  00000+0  35491-3 0  9997
2 41890  34.9448 285.6049 0006371 110.5312 249.6098 15.59678638527684
CYGFM03                 
1 41891U 16078H   26160.05816882  .00024776  00000+0  29948-3 0  9998
2 41891  34.9404 285.6073 0005860 100.3931 259.7455 15.59683603527700
